start=new Date('2021-11-29T00:00:00.000Z').valueOf();
sats=[{"OBJECT_TYPE":"PAYLOAD","NORAD_CAT_ID":"48136","MEAN_ELEMENT_THEORY":"SGP4","PERIOD":"95.592","APOAPSIS":"548.327","OBJECT_ID":"2021-027AW","MEAN_MOTION":"15.06399132","CLASSIFICATION_TYPE":"U","REV_AT_EPOCH":"3699","GP_ID":"190686292","ELEMENT_SET_NO":"999","PERIAPSIS":"546.105","REF_FRAME":"TEME","SITE":"AFETR","MEAN_MOTION_DDOT":"0.0000000000000","ARG_OF_PERICENTER":"62.2193","BSTAR":"0.00002830000000","RCS_SIZE":"LARGE","MEAN_MOTION_DOT":"0.00000140","LAUNCH_DATE":"2021-04-07","COUNTRY_CODE":"US","ECCENTRICITY":"0.00016040","RA_OF_ASC_NODE":"343.5419","MEAN_ANOMALY":"297.8958","FILE":"3226391","DECAY_DATE":null,"TLE_LINE1":"1 48136U 21027AW  21332.72505103  .00000140  00000-0  28300-4 0  9990","INCLINATION":"53.0561","TIME_SYSTEM":"UTC","EPOCH":"2021-11-28T17:24:04.408992","OBJECT_NAME":"STARLINK-2479","EPHEMERIS_TYPE":"0","CENTER_NAME":"EARTH","SEMIMAJOR_AXIS":"6925.351","TLE_LINE2":"2 48136  53.0561 343.5419 0001604  62.2193 297.8958 15.06399132 36991"},{"EPOCH":"2021-11-28T22:49:08.612832","OBJECT_NAME":"STARLINK-2480","INCLINATION":"53.0528","TIME_SYSTEM":"UTC","CENTER_NAME":"EARTH","EPHEMERIS_TYPE":"0","TLE_LINE2":"2 48137  53.0528 322.5322 0001910  54.7498 305.3669 15.06389392 37306","SEMIMAJOR_AXIS":"6925.381","COUNTRY_CODE":"US","ECCENTRICITY":"0.00019100","LAUNCH_DATE":"2021-04-07","MEAN_MOTION_DOT":"-0.00000277","RA_OF_ASC_NODE":"322.5322","MEAN_ANOMALY":"305.3669","FILE":"3226391","TLE_LINE1":"1 48137U 21027AX  21332.95079413 -.00000277  00000-0  29281-6 0  9999","DECAY_DATE":null,"GP_ID":"190686541","ELEMENT_SET_NO":"999","REV_AT_EPOCH":"3730","REF_FRAME":"TEME","SITE":"AFETR","MEAN_MOTION_DDOT":"0.0000000000000","ARG_OF_PERICENTER":"54.7498","PERIAPSIS":"545.923","RCS_SIZE":"LARGE","BSTAR":"0.00000029281000","OBJECT_TYPE":"PAYLOAD","NORAD_CAT_ID":"48137","APOAPSIS":"548.569","PERIOD":"95.593","MEAN_ELEMENT_THEORY":"SGP4","CLASSIFICATION_TYPE":"U","OBJECT_ID":"2021-027AX","MEAN_MOTION":"15.06389392"},{"TLE_LINE2":"2 48138  53.0568 344.8129 0001567  51.6268 308.4861 15.06392255 36952","SEMIMAJOR_AXIS":"6925.372","EPOCH":"2021-11-28T10:40:39.512064","OBJECT_NAME":"STARLINK-2481","TIME_SYSTEM":"UTC","INCLINATION":"53.0568","CENTER_NAME":"EARTH","EPHEMERIS_TYPE":"0","FILE":"3226217","TLE_LINE1":"1 48138U 21027AY  21332.44490176 -.00003053  00000-0 -18618-3 0  9992","DECAY_DATE":null,"COUNTRY_CODE":"US","ECCENTRICITY":"0.00015670","LAUNCH_DATE":"2021-04-07","MEAN_MOTION_DOT":"-0.00003053","MEAN_ANOMALY":"308.4861","RA_OF_ASC_NODE":"344.8129","ARG_OF_PERICENTER":"51.6268","SITE":"AFETR","MEAN_MOTION_DDOT":"0.0000000000000","REF_FRAME":"TEME","PERIAPSIS":"546.152","RCS_SIZE":"LARGE","BSTAR":"-0.00018618000000","ELEMENT_SET_NO":"999","GP_ID":"190659256","REV_AT_EPOCH":"3695","APOAPSIS":"548.323","PERIOD":"95.593","MEAN_ELEMENT_THEORY":"SGP4","CLASSIFICATION_TYPE":"U","MEAN_MOTION":"15.06392255","OBJECT_ID":"2021-027AY","OBJECT_TYPE":"PAYLOAD","NORAD_CAT_ID":"48138"},{"REV_AT_EPOCH":"3727","ELEMENT_SET_NO":"999","GP_ID":"190685541","PERIAPSIS":"545.951","SITE":"AFETR","ARG_OF_PERICENTER":"57.9017","MEAN_MOTION_DDOT":"0.0000000000000","REF_FRAME":"TEME","BSTAR":"0.00005761200000","RCS_SIZE":"LARGE","OBJECT_TYPE":"PAYLOAD","NORAD_CAT_ID":"48139","MEAN_ELEMENT_THEORY":"SGP4","PERIOD":"95.592","APOAPSIS":"548.462","MEAN_MOTION":"15.06402311","OBJECT_ID":"2021-027AZ","CLASSIFICATION_TYPE":"U","TIME_SYSTEM":"UTC","INCLINATION":"53.0559","OBJECT_NAME":"STARLINK-2482","EPOCH":"2021-11-28T16:49:34.188096","EPHEMERIS_TYPE":"0","CENTER_NAME":"EARTH","SEMIMAJOR_AXIS":"6925.341","TLE_LINE2":"2 48139  53.0559 323.6483 0001813  57.9017 302.2147 15.06402311 37276","LAUNCH_DATE":"2021-04-07","MEAN_MOTION_DOT":"0.00000577","COUNTRY_CODE":"US","ECCENTRICITY":"0.00018130","MEAN_ANOMALY":"302.2147","RA_OF_ASC_NODE":"323.6483","FILE":"3226391","DECAY_DATE":null,"TLE_LINE1":"1 48139U 21027AZ  21332.70109014  .00000577  00000-0  57612-4 0  9994"},{"PERIOD":"95.591","MEAN_ELEMENT_THEORY":"SGP4","APOAPSIS":"548.438","MEAN_MOTION":"15.06410264","OBJECT_ID":"2021-027BA","CLASSIFICATION_TYPE":"U","OBJECT_TYPE":"PAYLOAD","NORAD_CAT_ID":"48140","PERIAPSIS":"545.926","ARG_OF_PERICENTER":"63.7123","SITE":"AFETR","MEAN_MOTION_DDOT":"0.0000000000000","REF_FRAME":"TEME","BSTAR":"0.00005303500000","RCS_SIZE":"LARGE","REV_AT_EPOCH":"3699","ELEMENT_SET_NO":"999","GP_ID":"190686792","FILE":"3226391","DECAY_DATE":null,"TLE_LINE1":"1 48140U 21027BA  21332.73515429  .00000509  00000-0  53035-4 0  9990","LAUNCH_DATE":"2021-04-07","MEAN_MOTION_DOT":"0.00000509","COUNTRY_CODE":"US","ECCENTRICITY":"0.00018140","MEAN_ANOMALY":"296.4052","RA_OF_ASC_NODE":"343.4984","SEMIMAJOR_AXIS":"6925.317","TLE_LINE2":"2 48140  53.0566 343.4984 0001814  63.7123 296.4052 15.06410264 36999","TIME_SYSTEM":"UTC","INCLINATION":"53.0566","EPOCH":"2021-11-28T17:38:37.330656","OBJECT_NAME":"STARLINK-2483","EPHEMERIS_TYPE":"0","CENTER_NAME":"EARTH"},{"FILE":"3226391","TLE_LINE1":"1 48141U 21027BB  21332.75822312  .00000519  00000-0  53726-4 0  9993","DECAY_DATE":null,"COUNTRY_CODE":"US","ECCENTRICITY":"0.00016730","LAUNCH_DATE":"2021-04-07","MEAN_MOTION_DOT":"0.00000519","RA_OF_ASC_NODE":"343.4101","MEAN_ANOMALY":"299.0818","TLE_LINE2":"2 48141  53.0555 343.4101 0001673  61.0339 299.0818 15.06398013 37012","SEMIMAJOR_AXIS":"6925.355","EPOCH":"2021-11-28T18:11:50.477568","OBJECT_NAME":"STARLINK-2484","INCLINATION":"53.0555","TIME_SYSTEM":"UTC","CENTER_NAME":"EARTH","EPHEMERIS_TYPE":"0","APOAPSIS":"548.378","MEAN_ELEMENT_THEORY":"SGP4","PERIOD":"95.592","CLASSIFICATION_TYPE":"U","OBJECT_ID":"2021-027BB","MEAN_MOTION":"15.06398013","OBJECT_TYPE":"PAYLOAD","NORAD_CAT_ID":"48141","REF_FRAME":"TEME","MEAN_MOTION_DDOT":"0.0000000000000","SITE":"AFETR","ARG_OF_PERICENTER":"61.0339","PERIAPSIS":"546.061","RCS_SIZE":"LARGE","BSTAR":"0.00005372600000","GP_ID":"190687041","ELEMENT_SET_NO":"999","REV_AT_EPOCH":"3701"},{"CLASSIFICATION_TYPE":"U","MEAN_MOTION":"15.06403507","OBJECT_ID":"2021-027BC","APOAPSIS":"548.395","PERIOD":"95.592","MEAN_ELEMENT_THEORY":"SGP4","NORAD_CAT_ID":"48142","OBJECT_TYPE":"PAYLOAD","RCS_SIZE":"LARGE","BSTAR":"0.00015257000000","SITE":"AFETR","ARG_OF_PERICENTER":"53.8056","MEAN_MOTION_DDOT":"0.0000000000000","REF_FRAME":"TEME","PERIAPSIS":"546.010","ELEMENT_SET_NO":"999","GP_ID":"190685791","REV_AT_EPOCH":"3728","TLE_LINE1":"1 48142U 21027BC  21332.76374140  .00001992  00000-0  15257-3 0  9998","DECAY_DATE":null,"FILE":"3226391","MEAN_ANOMALY":"306.3092","RA_OF_ASC_NODE":"323.3833","ECCENTRICITY":"0.00017220","COUNTRY_CODE":"US","MEAN_MOTION_DOT":"0.00001992","LAUNCH_DATE":"2021-04-07","TLE_LINE2":"2 48142  53.0554 323.3833 0001722  53.8056 306.3092 15.06403507 37281","SEMIMAJOR_AXIS":"6925.338","CENTER_NAME":"EARTH","EPHEMERIS_TYPE":"0","OBJECT_NAME":"STARLINK-2485","EPOCH":"2021-11-28T18:19:47.256960","TIME_SYSTEM":"UTC","INCLINATION":"53.0554"},{"CENTER_NAME":"EARTH","EPHEMERIS_TYPE":"0","EPOCH":"2021-11-28T19:32:54.330144","OBJECT_NAME":"STARLINK-2486","TIME_SYSTEM":"UTC","INCLINATION":"53.0535","TLE_LINE2":"2 48143  53.0535 277.4616 0001690  64.6332 295.4831 15.03941621 37921","SEMIMAJOR_AXIS":"6932.893","MEAN_ANOMALY":"295.4831","RA_OF_ASC_NODE":"277.4616","COUNTRY_CODE":"US","ECCENTRICITY":"0.00016900","LAUNCH_DATE":"2021-04-07","MEAN_MOTION_DOT":"-0.00000130","TLE_LINE1":"1 48143U 21027BD  21332.81451771 -.00000130  00000-0  10378-4 0  9995","DECAY_DATE":null,"FILE":"3226391","ELEMENT_SET_NO":"999","GP_ID":"190686041","REV_AT_EPOCH":"3792","RCS_SIZE":"LARGE","BSTAR":"0.00001037800000","SITE":"AFETR","ARG_OF_PERICENTER":"64.6332","MEAN_MOTION_DDOT":"0.0000000000000","REF_FRAME":"TEME","PERIAPSIS":"553.587","NORAD_CAT_ID":"48143","OBJECT_TYPE":"PAYLOAD","CLASSIFICATION_TYPE":"U","MEAN_MOTION":"15.03941621","OBJECT_ID":"2021-027BD","APOAPSIS":"555.930","PERIOD":"95.748","MEAN_ELEMENT_THEORY":"SGP4"},{"TLE_LINE1":"1 48144U 21027BE  21332.70478351 -.00000273  00000-0  58649-6 0  9990","DECAY_DATE":null,"FILE":"3226391","MEAN_ANOMALY":"299.8081","RA_OF_ASC_NODE":"323.6468","COUNTRY_CODE":"US","ECCENTRICITY":"0.00017180","LAUNCH_DATE":"2021-04-07","MEAN_MOTION_DOT":"-0.00000273","TLE_LINE2":"2 48144  53.0550 323.6468 0001718  60.3078 299.8081 15.06389832 37264","SEMIMAJOR_AXIS":"6925.380","CENTER_NAME":"EARTH","EPHEMERIS_TYPE":"0","OBJECT_NAME":"STARLINK-2487","EPOCH":"2021-11-28T16:54:53.295264","TIME_SYSTEM":"UTC","INCLINATION":"53.0550","CLASSIFICATION_TYPE":"U","MEAN_MOTION":"15.06389832","OBJECT_ID":"2021-027BE","APOAPSIS":"548.435","PERIOD":"95.593","MEAN_ELEMENT_THEORY":"SGP4","NORAD_CAT_ID":"48144","OBJECT_TYPE":"PAYLOAD","RCS_SIZE":"LARGE","BSTAR":"0.00000058649000","SITE":"AFETR","MEAN_MOTION_DDOT":"0.0000000000000","ARG_OF_PERICENTER":"60.3078","REF_FRAME":"TEME","PERIAPSIS":"546.055","ELEMENT_SET_NO":"999","GP_ID":"190686293","REV_AT_EPOCH":"3726"},{"SEMIMAJOR_AXIS":"6925.374","TLE_LINE2":"2 48145  53.0558 323.3188 0001601  59.6260 300.4887 15.06391604 37289","TIME_SYSTEM":"UTC","INCLINATION":"53.0558","EPOCH":"2021-11-28T18:35:43.368864","OBJECT_NAME":"STARLINK-2488","EPHEMERIS_TYPE":"0","CENTER_NAME":"EARTH","FILE":"3226391","DECAY_DATE":null,"TLE_LINE1":"1 48145U 21027BF  21332.77480751  .00000007  00000-0  19368-4 0  9992","LAUNCH_DATE":"2021-04-07","MEAN_MOTION_DOT":"0.00000007","COUNTRY_CODE":"US","ECCENTRICITY":"0.00016010","MEAN_ANOMALY":"300.4887","RA_OF_ASC_NODE":"323.3188","PERIAPSIS":"546.131","ARG_OF_PERICENTER":"59.6260","SITE":"AFETR","MEAN_MOTION_DDOT":"0.0000000000000","REF_FRAME":"TEME","BSTAR":"0.00001936800000","RCS_SIZE":"LARGE","REV_AT_EPOCH":"3728","ELEMENT_SET_NO":"999","GP_ID":"190686542","PERIOD":"95.593","MEAN_ELEMENT_THEORY":"SGP4","APOAPSIS":"548.348","MEAN_MOTION":"15.06391604","OBJECT_ID":"2021-027BF","CLASSIFICATION_TYPE":"U","OBJECT_TYPE":"PAYLOAD","NORAD_CAT_ID":"48145"}];
